STARLINK-3939           
1 52545U 22051N   22150.55665953  .00064481  00000+0  46059-3 0  9994
2 52545  53.2166 210.7998 0002671  33.1081 327.0106 15.73184198  3092
STARLINK-3948           
1 52546U 22051P   22150.55602543  .00022532  00000+0  16487-3 0  9994
2 52546  53.2169 210.7946 0001980  13.7261 346.3813 15.73150576  3097
STARLINK-3869           
1 52547U 22051Q   22150.58334491 -.00836808  00000+0 -10542-1 0  9997
2 52547  53.2175 210.8800 0001727  29.2346 341.0138 15.61304937  1303
STARLINK-3931           
1 52548U 22051R   22150.55550073  .00054565  00000+0  39108-3 0  9992
2 52548  53.2166 210.7920 0002529  33.7281 326.3900 15.73173745  3090
STARLINK-3935           
1 52549U 22051S   22150.55613052  .00030864  00000+0  22405-3 0  9998
2 52549  53.2168 210.7956 0002707  15.1413 344.9688 15.73141981  3097
STARLINK-3965           
1 52550U 22051T   22150.55570343  .00049650  00000+0  35629-3 0  9990
2 52550  53.2171 210.7937 0002560  16.4455 343.6648 15.73184547  3096
STARLINK-3969           
1 52551U 22051U   22150.55589631  .00015454  00000+0  11419-3 0  9997
2 52551  53.2170 210.7941 0002196  22.7784 337.3333 15.73227924  3099
STARLINK-3966           
1 52552U 22051V   22150.55539054  .00014153  00000+0  10536-3 0  9996
2 52552  53.2181 210.7923 0001724  18.5496 341.5587 15.73139354  3098
STARLINK-3858           
1 52553U 22051W   22150.55581737  .00039063  00000+0  28176-3 0  9998
2 52553  53.2171 210.7944 0002509  17.7023 342.4084 15.73172028  3097
STARLINK-3770           
1 52554U 22051X   22150.58334491 -.00836713  00000+0 -10554-1 0  9993
2 52554  53.2175 210.8835 0001481  37.4425 338.6216 15.61274455  1305
STARLINK-3949           
1 52555U 22051Y   22150.55560041  .00041559  00000+0  29926-3 0  9992
2 52555  53.2172 210.7929 0003107  21.3032 338.8117 15.73180866  3094
STARLINK-3763           
1 52556U 22051Z   22150.58031859 -.00278378  00000+0 -32831-2 0  9997
2 52556  53.2188 210.9205 0002205   5.5450 354.5589 15.61608613  3097
STARLINK-3943           
1 52557U 22051AA  22150.55528214  .00019972  00000+0  14661-3 0  9994
2 52557  53.2170 210.7910 0002150  35.1046 325.0115 15.73163018  3095
STARLINK-3954           
1 52558U 22051AB  22150.55487304  .00012749  00000+0  95414-4 0  9990
2 52558  53.2175 210.7892 0002163  22.8666 337.2450 15.73126896  3095
STARLINK-3953           
1 52559U 22051AC  22150.55507396  .00025049  00000+0  18273-3 0  9999
2 52559  53.2169 210.7895 0002543  16.1044 344.0057 15.73150415  3093
STARLINK-3956           
1 52560U 22051AD  22150.55455132 -.00001437  00000+0 -58304-5 0  9999
2 52560  53.2182 210.7875 0001807  24.0454 336.0651 15.73146234  3098
STARLINK-3955           
1 52561U 22051AE  22150.58334491 -.00836525  00000+0 -10548-1 0  9995
2 52561  53.2175 210.9002 0001651  31.1777 348.0239 15.61281434  1305
STARLINK-3957           
1 52562U 22051AF  22150.55434214  .00071400  00000+0  50940-3 0  9990
2 52562  53.2171 210.7859 0002898  20.7273 339.3864 15.73170594  3091
STARLINK-3942           
1 52563U 22051AG  22150.58334491 -.00836559  00000+0 -10551-1 0  9998
2 52563  53.2175 210.8940 0001554  33.8543 344.6252 15.61276048  1301
STARLINK-3959           
1 52564U 22051AH  22150.57936156 -.00347174  00000+0 -40872-2 0  9994
2 52564  53.2220 210.9324 0001673 332.5608  27.5319 15.61881931  3095
STARLINK-3911           
1 52565U 22051AJ  22150.55444333  .00009246  00000+0  70443-4 0  9996
2 52565  53.2171 210.7842 0002090  24.0159 336.0958 15.73126265  3094
STARLINK-3938           
1 52566U 22051AK  22150.58334491 -.00836449  00000+0 -10551-1 0  9999
2 52566  53.2175 210.9462 0001834  27.0498 356.0230 15.61270116  1302
STARLINK-3929           
1 52567U 22051AL  22150.55423400  .00047859  00000+0  34398-3 0  9990
2 52567  53.2172 210.7846 0002455  32.0952 328.0217 15.73163596  3093
STARLINK-3930           
1 52568U 22051AM  22150.55371164  .00030366  00000+0  22035-3 0  9990
2 52568  53.2173 210.7805 0002418  14.9364 345.1727 15.73160684  3096
STARLINK-3927           
1 52569U 22051AN  22150.55412447  .00036619  00000+0  26460-3 0  9994
2 52569  53.2168 210.7834 0002739  18.6655 341.4465 15.73161642  3096
STARLINK-3924           
1 52570U 22051AP  22150.58334491  .00087857  00000+0  62484-3 0  9997
2 52570  53.2178 210.6352 0002566  18.4332 150.8057 15.73161757  1309
STARLINK-3901           
1 52574U 22051AQ  22150.55381902  .00042355  00000+0  30516-3 0  9992
2 52574  53.2165 210.7826 0002537   9.7693 350.3376 15.73161093  3099
STARLINK-3920           
1 52575U 22051AR  22150.55327107  .00043831  00000+0  31530-3 0  9997
2 52575  53.2175 210.7791 0002247  18.8923 341.2181 15.73182743  3095
STARLINK-3932           
1 52576U 22051AS  22150.55360642  .00046393  00000+0  33384-3 0  9994
2 52576  53.2170 210.7811 0002565  22.2759 337.8372 15.73149089  3092
STARLINK-3836           
1 52577U 22051AT  22150.57856711 -.00394518  00000+0 -46901-2 0  9999
2 52577  53.2237 210.9554 0001541  55.9985 304.1177 15.61784823  3098
STARLINK-3833           
1 52578U 22051AU  22150.58334491 -.00836349  00000+0 -10556-1 0  9996
2 52578  53.2175 210.9485 0001509  36.1811 349.5558 15.61257186  1301
STARLINK-3893           
1 52579U 22051AV  22150.58334491 -.00836170  00000+0 -10550-1 0  9993
2 52579  53.2176 210.9652 0001720  29.3771 359.4977 15.61264140  1306
STARLINK-3919           
1 52580U 22051AW  22150.57844261 -.00439198  00000+0 -52653-2 0  9995
2 52580  53.2225 210.9578 0001094 115.4706 244.6422 15.61714647  3099
STARLINK-3915           
1 52581U 22051AX  22150.55265597  .00006904  00000+0  53741-4 0  9997
2 52581  53.2178 210.7766 0002787  77.9664 282.1669 15.73126563  3096
STARLINK-3886           
1 52582U 22051AY  22150.55296744  .00030480  00000+0  22114-3 0  9991
2 52582  53.2171 210.7764 0002423  16.5236 343.5863 15.73162247  3096
STARLINK-3895           
1 52583U 22051AZ  22150.55253798  .00015559  00000+0  11495-3 0  9994
2 52583  53.2179 210.7746 0002110  14.9683 345.1399 15.73225336  3097
STARLINK-3922           
1 52584U 22051BA  22150.55276103  .00026837  00000+0  19528-3 0  9996
2 52584  53.2172 210.7770 0002476  34.9776 325.1406 15.73167369  3096
STARLINK-3906           
1 52585U 22051BB  22150.55234224  .00023331  00000+0  17050-3 0  9999
2 52585  53.2174 210.7728 0002542  14.5754 345.5339 15.73155512  3094
STARLINK-3910           
1 52586U 22051BC  22150.55245732  .00079817  00000+0  56560-3 0  9995
2 52586  53.2173 210.7750 0002211  21.6785 338.4329 15.73286553  3095
STARLINK-3867           
1 52587U 22051BD  22150.55220186  .00029005  00000+0  21174-3 0  9999
2 52587  53.2175 210.7717 0002138   9.1900 350.9159 15.73045944  3096
STARLINK-3917           
1 52588U 22051BE  22150.58334491  .00059438  00000+0  42479-3 0  9992
2 52588  53.2174 210.6193 0002346  21.4351 155.5777 15.73205617  1303
FALCON 9 DEB            
1 52589U 22051BF  22150.36542739  .00220350  29820-4  57885-3 0  9991
2 52589  53.2307 210.2822 0012396 351.1567   8.9242 15.94296412  3086
FALCON 9 DEB            
1 52595U 22051BG  22150.54636490  .00237355  33260-4  57954-3 0  9999
2 52595  53.2280 209.2722 0010353 353.0116   7.0768 15.95675712  3114
FALCON 9 DEB            
1 52596U 22051BH  22150.34525417  .00280496  42837-4  62519-3 0  9991
2 52596  53.2239 210.1356 0012553 333.4846  26.5541 15.97246628  3082
FALCON 9 DEB            
1 52597U 22051BJ  22150.53131050  .00237917  33836-4  53513-3 0  9992
2 52597  53.2211 209.1566 0010101 326.8757  33.1640 15.97175111  3114
STARLINK-4019           
1 52598U 22052A   22150.57409496 -.00375847  00000+0 -37763-2 0  9997
2 52598  53.2150   1.8497 0002319 142.0020 218.1161 15.65966716  3296
STARLINK-4024           
1 52599U 22052B   22150.58334491 -.00027194  00000+0 -18959-3 0  9997
2 52599  53.2148   1.7033 0001255 109.9319   3.5962 15.73246311  1306
STARLINK-4026           
1 52600U 22052C   22150.58334491  .00073507  00000+0  52409-3 0  9995
2 52600  53.2153   1.7011 0001494 113.6155   1.5620 15.73177396  1301
STARLINK-4027           
1 52601U 22052D   22150.58334491  .00072607  00000+0  51779-3 0  9995
2 52601  53.2148   1.7024 0001444  98.0315  15.9233 15.73176990  1307
STARLINK-4012           
1 52602U 22052E   22150.58334491  .00072746  00000+0  51871-3 0  9993
2 52602  53.2151   1.7023 0001496 111.3641   3.1860 15.73179470  1300
STARLINK-4016           
1 52603U 22052F   22150.58334491  .00071139  00000+0  50698-3 0  9995
2 52603  53.2148   1.6948 0001315 111.6711   5.8222 15.73200881  1305
STARLINK-4013           
1 52604U 22052G   22150.58334491  .00061799  00000+0  44136-3 0  9997
2 52604  53.2151   1.6996 0001359 110.0529   5.7281 15.73207460  1305
STARLINK-4000           
1 52605U 22052H   22150.58334491 -.00826093  00000+0 -90589-2 0  9998
2 52605  53.2176   1.7799 0001062 100.8098 312.4217 15.65180471  1304
STARLINK-3928           
1 52606U 22052J   22150.58334491  .00044075  00000+0  31665-3 0  9990
2 52606  53.2150   1.6980 0001183 114.3243   2.0300 15.73211724  1304
STARLINK-3947           
1 52607U 22052K   22150.58334491 -.00826129  00000+0 -90571-2 0  9991
2 52607  53.2176   1.7867 0001042  96.2639 318.8509 15.65186770  1301
STARLINK-3979           
1 52608U 22052L   22150.58334491  .00047656  00000+0  34163-3 0  9996
2 52608  53.2150   1.6927 0001236 120.5052 358.2096 15.73228259  1302
STARLINK-3997           
1 52609U 22052M   22150.58334491  .00048910  00000+0  35041-3 0  9997
2 52609  53.2147   1.6868 0001155 127.0147 354.0763 15.73231315  1302
STARLINK-3998           
1 52610U 22052N   22150.57368075 -.00359506  00000+0 -36282-2 0  9998
2 52610  53.2146   1.8477 0001779  86.5128 273.6092 15.65809216  2495
STARLINK-3980           
1 52611U 22052P   22150.58334491 -.00826232  00000+0 -90597-2 0  9999
2 52611  53.2176   1.7883 0001036  89.5282 327.3109 15.65183103  1304
